[{"OBJECT_NAME":"MAKERSAT 0","OBJECT_ID":"2017-073D","EPOCH":"2026-03-09T15:16:53.554944","MEAN_MOTION":15.27797199,"ECCENTRICITY":0.0115258,"INCLINATION":97.4777,"RA_OF_ASC_NODE":310.6155,"ARG_OF_PERICENTER":266.0743,"MEAN_ANOMALY":92.7313,"EPHEMERIS_TYPE":0,"CLASSIFICATION_TYPE":"U","NORAD_CAT_ID":43016,"ELEMENT_SET_NO":999,"REV_AT_EPOCH":45124,"BSTAR":0.0007159,"MEAN_MOTION_DOT":0.00023659,"MEAN_MOTION_DDOT":0},{"OBJECT_NAME":"STARLINK-31727","OBJECT_ID":"2024-082H","EPOCH":"2026-03-08T14:51:33.683040","MEAN_MOTION":15.27561531,"ECCENTRICITY":0.00010985,"INCLINATION":43.0027,"RA_OF_ASC_NODE":146.244,"ARG_OF_PERICENTER":232.1445,"MEAN_ANOMALY":127.9307,"EPHEMERIS_TYPE":0,"CLASSIFICATION_TYPE":"U","NORAD_CAT_ID":59638,"ELEMENT_SET_NO":999,"REV_AT_EPOCH":10469,"BSTAR":-8.742688e-6,"MEAN_MOTION_DOT":-5.02e-6,"MEAN_MOTION_DDOT":0}]
